HIMAWARI-8              
1 40267U 14060A   24225.18660690 -.00000264  00000+0  00000+0 0  9992
2 40267   0.0506 257.6874 0000780 251.6236  19.6405  1.00274157 36103
